{
    "links": {
        "self": "http://www.neowsapp.com/rest/v1/neo/3254921?api_key=iIulBulltgU6a56xZRHN4H3l9WmuAYTsLGpBGhQ2"
    },
    "id": "3254921",
    "neo_reference_id": "3254921",
    "name": "(2004 SE26)",
    "designation": "2004 SE26",
    "nasa_jpl_url": "http://ssd.jpl.nasa.gov/sbdb.cgi?sstr=3254921",
    "absolute_magnitude_h": 25.8,
    "estimated_diameter": {
        "kilometers": {
            "estimated_diameter_min": 0.0183888672,
            "estimated_diameter_max": 0.0411187571
        },
        "meters": {
            "estimated_diameter_min": 18.388867207,
            "estimated_diameter_max": 41.1187571041
        },
        "miles": {
            "estimated_diameter_min": 0.0114263088,
            "estimated_diameter_max": 0.0255500032
        },
        "feet": {
            "estimated_diameter_min": 60.3309310875,
            "estimated_diameter_max": 134.9040630575
        }
    },
    "is_potentially_hazardous_asteroid": false,
    "close_approach_data": [
        {
            "close_approach_date": "2004-09-19",
            "close_approach_date_full": "2004-Sep-19 09:10",
            "epoch_date_close_approach": 1095585000000,
            "relative_velocity": {
                "kilometers_per_second": "11.1636257672",
                "kilometers_per_hour": "40189.0527618919",
                "miles_per_hour": "24971.9144786322"
            },
            "miss_distance": {
                "astronomical": "0.0125207697",
                "lunar": "4.8705794133",
                "kilometers": "1873080.477880539",
                "miles": "1163878.2392038782"
            },
            "orbiting_body": "Earth"
        }
    ],
    "orbital_data": {
        "orbit_id": "6",
        "orbit_determination_date": "2017-04-06 09:12:11",
        "first_observation_date": "2004-09-21",
        "last_observation_date": "2004-09-23",
        "data_arc_in_days": 2,
        "observations_used": 18,
        "orbit_uncertainty": "9",
        "minimum_orbit_intersection": ".00664067",
        "jupiter_tisserand_invariant": "4.015",
        "epoch_osculation": "2453270.5",
        "eccentricity": ".4563746993553557",
        "semi_major_axis": "1.730808849851512",
        "inclination": "10.74117170939128",
        "ascending_node_longitude": "176.9854886450462",
        "orbital_period": "831.7103147526568",
        "perihelion_distance": ".9409114813589394",
        "perihelion_argument": "140.1264741164785",
        "aphelion_distance": "2.520706218344085",
        "perihelion_time": "2453236.424386945690",
        "mean_anomaly": "14.7493910823984",
        "mean_motion": ".4328430147064615",
        "equinox": "J2000",
        "orbit_class": {
            "orbit_class_type": "APO",
            "orbit_class_description": "Near-Earth asteroid orbits which cross the Earth’s orbit similar to that of 1862 Apollo",
            "orbit_class_range": "a (semi-major axis) > 1.0 AU; q (perihelion) < 1.017 AU"
        }
    },
    "is_sentry_object": false
}